NORAD_CAT_ID,OBJECT_NAME,OBJECT_TYPE,EPOCH,MEAN_MOTION,ECCENTRICITY,INCLINATION,RA_OF_ASC_NODE,ARG_OF_PERICENTER,MEAN_ANOMALY,BSTAR,MEAN_MOTION_DOT,MEAN_MOTION_DDOT,TLE_LINE0,TLE_LINE1,TLE_LINE2,SEMIMAJOR_AXIS,PERIOD,APOGEE,PERIGEE,DECAYED
53602.0,STARLINK-4648,PAYLOAD,2023-07-06 08:50:11,15.08819331,0.0001008,53.2176,306.4291,100.4644,259.6462,0.00029103,4.344e-05,0.0,0 STARLINK-4648,1 53602U 22104Q   23187.36819346  .00004344  00000-0  29103-3 0  9999,2 53602  53.2176 306.4291 0001008 100.4644 259.6462 15.08819331 47458,6917.944,95.439,540.506,539.111,0.0
53602.0,STARLINK-4648,PAYLOAD,2023-07-06 15:11:43,15.08839138,9.57e-05,53.2178,305.24,107.2055,252.9042,7.103e-05,8.43e-06,0.0,0 STARLINK-4648,1 53602U 22104Q   23187.63314386  .00000843  00000-0  71030-4 0  9990,2 53602  53.2178 305.2400 0000957 107.2055 252.9042 15.08839138 47493,6917.883,95.438,540.41,539.086,0.0
53602.0,STARLINK-4648,PAYLOAD,2023-07-06 16:47:06,15.08843469,0.0001117,53.2177,304.9428,118.6496,241.4608,0.00011238,1.501e-05,0.0,0 STARLINK-4648,1 53602U 22104Q   23187.69938030  .00001501  00000-0  11238-3 0  9999,2 53602  53.2177 304.9428 0001117 118.6496 241.4608 15.08843469 47507,6917.87,95.437,540.508,538.962,0.0
53602.0,STARLINK-4648,PAYLOAD,2023-07-08 00:34:49,15.08839527,3.38e-05,53.2177,298.9981,114.3146,245.7881,2.3849e-05,9.2e-07,0.0,0 STARLINK-4648,1 53602U 22104Q   23189.02417970  .00000092  00000-0  23849-4 0  9999,2 53602  53.2177 298.9981 0000338 114.3146 245.7881 15.08839527 47704,6917.882,95.438,539.981,539.513,0.0
53602.0,STARLINK-4648,PAYLOAD,2023-07-09 00:25:36,15.08830132,7.43e-05,53.2171,294.5345,91.8446,268.2631,-8.337e-05,-1.614e-05,0.0,0 STARLINK-4648,1 53602U 22104Q   23190.01778728 -.00001614  00000-0 -83370-4 0  9999,2 53602  53.2171 294.5345 0000743  91.8446 268.2631 15.08830132 47858,6917.911,95.438,540.29,539.262,0.0
53602.0,STARLINK-4648,PAYLOAD,2023-07-09 17:54:50,15.08842413,8.54e-05,53.2168,291.2627,91.5136,268.5954,6.5061e-05,7.48e-06,0.0,0 STARLINK-4648,1 53602U 22104Q   23190.74642357  .00000748  00000-0  65061-4 0  9999,2 53602  53.2168 291.2627 0000854  91.5136 268.5954 15.08842413 47965,6917.873,95.437,540.329,539.147,0.0
53602.0,STARLINK-4648,PAYLOAD,2023-07-11 06:28:43,15.08843843,0.0001124,53.2158,284.4237,79.5895,280.5224,0.00024171,3.561e-05,0.0,0 STARLINK-4648,1 53602U 22104Q   23192.26994801  .00003561  00000-0  24171-3 0  9994,2 53602  53.2158 284.4237 0001124  79.5895 280.5224 15.08843843 48192,6917.869,95.437,540.511,538.956,0.0
53602.0,STARLINK-4648,PAYLOAD,2023-07-12 12:41:02,15.08849952,0.0001292,53.2166,278.7739,88.0658,272.0482,0.00023514,3.457e-05,0.0,0 STARLINK-4648,1 53602U 22104Q   23193.52850375  .00003457  00000-0  23514-3 0  9995,2 53602  53.2166 278.7739 0001292  88.0658 272.0482 15.08849952 48382,6917.85,95.437,540.609,538.821,0.0
53602.0,STARLINK-4648,PAYLOAD,2023-07-13 10:56:26,15.08839096,0.0001258,53.2178,274.6075,101.4887,258.6247,7.7381e-05,9.44e-06,0.0,0 STARLINK-4648,1 53602U 22104Q   23194.45586732  .00000944  00000-0  77381-4 0  9991,2 53602  53.2178 274.6075 0001258 101.4887 258.6247 15.08839096 48522,6917.883,95.438,540.618,538.878,0.0
53602.0,STARLINK-4648,PAYLOAD,2023-07-14 17:08:46,15.08853185,0.0001139,53.2171,268.9587,92.7784,267.3338,0.00045218,6.918e-05,0.0,0 STARLINK-4648,1 53602U 22104Q   23195.71442546  .00006918  00000-0  45218-3 0  9995,2 53602  53.2171 268.9587 0001139  92.7784 267.3338 15.08853185 48719,6917.84,95.437,540.493,538.917,0.0
53602.0,STARLINK-4648,PAYLOAD,2023-07-15 09:02:37,15.08850238,0.0001664,53.2158,265.9853,103.2797,256.838,0.0003327,5.012e-05,0.0,0 STARLINK-4648,1 53602U 22104Q   23196.37682558  .00005012  00000-0  33270-3 0  9996,2 53602  53.2158 265.9853 0001664 103.2797 256.8380 15.08850238 48819,6917.849,95.437,540.865,538.563,0.0
53602.0,STARLINK-4648,PAYLOAD,2023-07-16 04:07:15,15.08828085,9.45e-05,53.216,262.4181,85.0973,275.0127,-0.0001927,-3.352e-05,0.0,0 STARLINK-4648,1 53602U 22104Q   23197.17171247 -.00003352  00000-0 -19270-3 0  9994,2 53602  53.2160 262.4181 0000945  85.0973 275.0127 15.08828085 48932,6917.917,95.438,540.436,539.128,0.0
53602.0,STARLINK-4648,PAYLOAD,2023-07-16 21:36:30,15.08838001,9.98e-05,53.2155,259.1485,78.3582,281.7522,0.00023111,3.392e-05,0.0,0 STARLINK-4648,1 53602U 22104Q   23197.90035544  .00003392  00000-0  23111-3 0  9995,2 53602  53.2155 259.1485 0000998  78.3582 281.7522 15.08838001 49040,6917.886,95.438,540.442,539.061,0.0
53602.0,STARLINK-4648,PAYLOAD,2023-07-17 15:05:44,15.08857808,0.0001111,53.215,255.8773,69.6049,290.5063,0.00089189,0.00013942,0.0,0 STARLINK-4648,1 53602U 22104Q   23198.62899299  .00013942  00000-0  89189-3 0  9999,2 53602  53.2150 255.8773 0001111  69.6049 290.5063 15.08857808 49153,6917.826,95.436,540.46,538.922,0.0
53602.0,STARLINK-4648,PAYLOAD,2023-07-18 10:10:22,15.08855831,0.0001098,53.2151,252.3086,73.927,286.1843,0.00067697,0.00010507,0.0,0 STARLINK-4648,1 53602U 22104Q   23199.42387171  .00010507  00000-0  67697-3 0  9993,2 53602  53.2151 252.3086 0001098  73.9270 286.1843 15.08855831 49275,6917.832,95.437,540.457,538.937,0.0
53602.0,STARLINK-4648,PAYLOAD,2023-07-19 10:01:09,15.08837651,0.000114,53.2157,247.8479,76.4498,283.6621,3.8739e-05,3.29e-06,0.0,0 STARLINK-4648,1 53602U 22104Q   23200.41747594  .00000329  00000-0  38739-4 0  9991,2 53602  53.2157 247.8479 0001140  76.4498 283.6621 15.08837651 49427,6917.888,95.438,540.541,538.964,0.0
53602.0,STARLINK-4648,PAYLOAD,2023-07-20 14:38:06,15.08845384,0.0001176,53.2158,242.4944,82.2948,277.8178,0.00033101,4.985e-05,0.0,0 STARLINK-4648,1 53602U 22104Q   23201.60979721  .00004985  00000-0  33101-3 0  9991,2 53602  53.2158 242.4944 0001176  82.2948 277.8178 15.08845384 49604,6917.864,95.437,540.542,538.915,0.0
53602.0,STARLINK-4648,PAYLOAD,2023-07-21 12:53:30,15.08843345,0.0001168,53.2153,238.3312,85.3424,274.7701,0.00017002,2.419e-05,0.0,0 STARLINK-4648,1 53602U 22104Q   23202.53715720  .00002419  00000-0  17002-3 0  9993,2 53602  53.2153 238.3312 0001168  85.3424 274.7701 15.08843345 49744,6917.87,95.437,540.543,538.927,0.0
53602.0,STARLINK-4648,PAYLOAD,2023-07-24 01:18:09,15.08841544,0.0001071,53.2145,227.0318,86.687,273.4245,0.00015067,2.111e-05,0.0,0 STARLINK-4648,1 53602U 22104Q   23205.05428110  .00002111  00000-0  15067-3 0  9995,2 53602  53.2145 227.0318 0001071  86.6870 273.4245 15.08841544 50816,6917.876,95.437,540.482,539.0,0.0
53602.0,STARLINK-4648,PAYLOAD,2023-07-25 10:41:15,15.08844073,0.0001197,53.2151,220.7877,83.4378,276.6751,0.00011718,1.578e-05,0.0,0 STARLINK-4648,1 53602U 22104Q   23206.44532063  .00001578  00000-0  11718-3 0  9997,2 53602  53.2151 220.7877 0001197  83.4378 276.6751 15.08844073 51021,6917.868,95.437,540.561,538.905,0.0
53602.0,STARLINK-4648,PAYLOAD,2023-07-26 10:32:02,15.08842231,0.000128,53.2147,216.3264,89.4979,270.616,0.00012054,1.631e-05,0.0,0 STARLINK-4648,1 53602U 22104Q   23207.43892185  .00001631  00000-0  12054-3 0  9995,2 53602  53.2147 216.3264 0001280  89.4979 270.6160 15.08842231 51171,6917.874,95.437,540.624,538.853,0.0
53602.0,STARLINK-4648,PAYLOAD,2023-07-27 07:12:03,15.0884454,0.0001262,53.2148,212.461,86.5699,273.5437,0.00011343,1.518e-05,0.0,0 STARLINK-4648,1 53602U 22104Q   23208.30003932  .00001518  00000-0  11343-3 0  9990,2 53602  53.2148 212.4610 0001262  86.5699 273.5437 15.08844540 51300,6917.867,95.437,540.605,538.858,0.0
53602.0,STARLINK-4648,PAYLOAD,2023-07-27 16:44:22,15.08839361,0.0001188,53.2144,210.6767,83.0744,277.0384,2.8278e-05,1.62e-06,0.0,0 STARLINK-4648,1 53602U 22104Q   23208.69748133  .00000162  00000-0  28278-4 0  9991,2 53602  53.2144 210.6767 0001188  83.0744 277.0384 15.08839361 50673,6917.882,95.438,540.569,538.925,0.0
53602.0,STARLINK-4648,PAYLOAD,2023-07-28 00:41:18,15.08834096,0.0001238,53.216,209.191,88.2881,271.8253,2.3054e-05,7.9e-07,0.0,0 STARLINK-4648,1 53602U 22104Q   23209.02868708  .00000079  00000-0  23054-4 0  9994,2 53602  53.2160 209.1910 0001238  88.2881 271.8253 15.08834096 50722,6917.898,95.438,540.62,538.907,0.0
53602.0,STARLINK-4648,PAYLOAD,2023-07-28 10:13:37,15.08834122,0.0001221,53.2161,207.4068,86.9195,273.1937,4.079e-06,-2.23e-06,0.0,0 STARLINK-4648,1 53602U 22104Q   23209.42612792 -.00000223  00000-0  40790-5 0  9997,2 53602  53.2161 207.4068 0001221  86.9195 273.1937 15.08834122 51470,6917.898,95.438,540.608,538.919,0.0
53602.0,STARLINK-4648,PAYLOAD,2023-07-29 08:29:01,15.08839577,0.0001193,53.2162,203.2436,86.4682,273.6447,5.6855e-05,6.17e-06,0.0,0 STARLINK-4648,1 53602U 22104Q   23210.35348458  .00000617  00000-0  56855-4 0  9990,2 53602  53.2162 203.2436 0001193  86.4682 273.6447 15.08839577 50927,6917.882,95.438,540.572,538.921,0.0
53602.0,STARLINK-4648,PAYLOAD,2023-07-30 11:30:34,15.08839941,0.0001189,53.2167,198.1877,91.4456,268.6672,0.00010789,1.43e-05,0.0,0 STARLINK-4648,1 53602U 22104Q   23211.47956571  .00001430  00000-0  10789-3 0  9994,2 53602  53.2167 198.1877 0001189  91.4456 268.6672 15.08839941 51091,6917.881,95.438,540.568,538.923,0.0
53602.0,STARLINK-4648,PAYLOAD,2023-08-01 15:58:18,15.08838332,0.0001129,53.2165,188.3744,97.8503,262.2617,5.1853e-05,5.37e-06,0.0,0 STARLINK-4648,1 53602U 22104Q   23213.66549061  .00000537  00000-0  51853-4 0  9994,2 53602  53.2165 188.3744 0001129  97.8503 262.2617 15.08838332 51429,6917.885,95.438,540.532,538.969,0.0
53602.0,STARLINK-4648,PAYLOAD,2023-08-02 07:52:09,15.08845198,0.0001192,53.2163,185.4008,93.9212,266.1917,6.8552e-05,8.03e-06,0.0,0 STARLINK-4648,1 53602U 22104Q   23214.32788564  .00000803  00000-0  68552-4 0  9991,2 53602  53.2163 185.4008 0001192  93.9212 266.1917 15.08845198 51527,6917.865,95.437,540.554,538.905,0.0
53602.0,STARLINK-4648,PAYLOAD,2023-08-03 02:56:47,15.08837512,0.0001239,53.2163,181.8321,94.5552,265.5582,6.1425e-05,6.9e-06,0.0,0 STARLINK-4648,1 53602U 22104Q   23215.12277239  .00000690  00000-0  61425-4 0  9998,2 53602  53.2163 181.8321 0001239  94.5552 265.5582 15.08837512 51646,6917.888,95.438,540.61,538.896,0.0
